[
    {
        "Altitude(m)": 702812.92140321,
        "Argument of Periapsis(deg)": 0.007973084830638947,
        "Eccentricity": 0.0,
        "Inclination(deg)": 45.0,
        "Latitude(deg)": 17.054848645757335,
        "Longitude(deg)": 137.23335061413638,
        "Mean Anomaly(deg)": 24.436851653236566,
        "RAAN(deg)": 219.99247364097926,
        "Satellite Name": "Constellation 1 969",
        "Satellite Number": 969,
        "Semi-Major Axis(m)": 7083131.272910544,
        "Time(s)": 133
    },
    {
        "Altitude(m)": 702815.1407406497,
        "Argument of Periapsis(deg)": 0.008033032836884352,
        "Eccentricity": 0.0,
        "Inclination(deg)": 45.0,
        "Latitude(deg)": 17.095979282376714,
        "Longitude(deg)": 137.27613368129434,
        "Mean Anomaly(deg)": 24.497552793486452,
        "RAAN(deg)": 219.99241705181367,
        "Satellite Name": "Constellation 1 969",
        "Satellite Number": 969,
        "Semi-Major Axis(m)": 7083131.272910544,
        "Time(s)": 134
    },
    {
        "Altitude(m)": 702817.3761121,
        "Argument of Periapsis(deg)": 0.008092980843129758,
        "Eccentricity": 0.0,
        "Inclination(deg)": 45.0,
        "Latitude(deg)": 17.13709892511964,
        "Longitude(deg)": 137.31893734341728,
        "Mean Anomaly(deg)": 24.558253933736367,
        "RAAN(deg)": 219.9923604626481,
        "Satellite Name": "Constellation 1 969",
        "Satellite Number": 969,
        "Semi-Major Axis(m)": 7083131.272910544,
        "Time(s)": 135
    },
    {
        "Altitude(m)": 702819.6274901418,
        "Argument of Periapsis(deg)": 0.008152928849375162,
        "Eccentricity": 0.0,
        "Inclination(deg)": 45.0,
        "Latitude(deg)": 17.178207541175976,
        "Longitude(deg)": 137.36176165655948,
        "Mean Anomaly(deg)": 24.618955073986303,
        "RAAN(deg)": 219.99230387348254,
        "Satellite Name": "Constellation 1 969",
        "Satellite Number": 969,
        "Semi-Major Axis(m)": 7083131.272910544,
        "Time(s)": 136
    },
    {
        "Altitude(m)": 702821.8948472925,
        "Argument of Periapsis(deg)": 0.008212876855620568,
        "Eccentricity": 0.0,
        "Inclination(deg)": 45.0,
        "Latitude(deg)": 17.219305097695027,
        "Longitude(deg)": 137.40460667680645,
        "Mean Anomaly(deg)": 24.679656214236193,
        "RAAN(deg)": 219.992247284317,
        "Satellite Name": "Constellation 1 969",
        "Satellite Number": 969,
        "Semi-Major Axis(m)": 7083131.272910544,
        "Time(s)": 137
    },
    {
        "Altitude(m)": 702824.1781559943,
        "Argument of Periapsis(deg)": 0.008272824861865974,
        "Eccentricity": 0.0,
        "Inclination(deg)": 45.0,
        "Latitude(deg)": 17.260391561785415,
        "Longitude(deg)": 137.44747246027444,
        "Mean Anomaly(deg)": 24.74035735448605,
        "RAAN(deg)": 219.9921906951514,
        "Satellite Name": "Constellation 1 969",
        "Satellite Number": 969,
        "Semi-Major Axis(m)": 7083131.272910544,
        "Time(s)": 138
    },
    {
        "Altitude(m)": 702826.4773886369,
        "Argument of Periapsis(deg)": 0.00833277286811138,
        "Eccentricity": 0.0,
        "Inclination(deg)": 45.0,
        "Latitude(deg)": 17.30146690051499,
        "Longitude(deg)": 137.49035906311107,
        "Mean Anomaly(deg)": 24.801058494735987,
        "RAAN(deg)": 219.99213410598585,
        "Satellite Name": "Constellation 1 969",
        "Satellite Number": 969,
        "Semi-Major Axis(m)": 7083131.272910544,
        "Time(s)": 139
    },
    {
        "Altitude(m)": 702828.7925175412,
        "Argument of Periapsis(deg)": 0.008392720874356788,
        "Eccentricity": 0.0,
        "Inclination(deg)": 45.0,
        "Latitude(deg)": 17.34253108091064,
        "Longitude(deg)": 137.5332665414947,
        "Mean Anomaly(deg)": 24.861759634985898,
        "RAAN(deg)": 219.99207751682025,
        "Satellite Name": "Constellation 1 969",
        "Satellite Number": 969,
        "Semi-Major Axis(m)": 7083131.272910544,
        "Time(s)": 140
    },
    {
        "Altitude(m)": 702831.12351497,
        "Argument of Periapsis(deg)": 0.008452668880602192,
        "Eccentricity": 0.0,
        "Inclination(deg)": 45.0,
        "Latitude(deg)": 17.3835840699584,
        "Longitude(deg)": 137.57619478353766,
        "Mean Anomaly(deg)": 24.922460775235788,
        "RAAN(deg)": 219.9920209276547,
        "Satellite Name": "Constellation 1 969",
        "Satellite Number": 969,
        "Semi-Major Axis(m)": 7083131.272910544,
        "Time(s)": 141
    },
    {
        "Altitude(m)": 702833.4703531137,
        "Argument of Periapsis(deg)": 0.008512616886847598,
        "Eccentricity": 0.0,
        "Inclination(deg)": 45.0,
        "Latitude(deg)": 17.424625834602548,
        "Longitude(deg)": 137.61914418167467,
        "Mean Anomaly(deg)": 24.983161915485624,
        "RAAN(deg)": 219.99196433848914,
        "Satellite Name": "Constellation 1 969",
        "Satellite Number": 969,
        "Semi-Major Axis(m)": 7083131.272910544,
        "Time(s)": 142
    },
    {
        "Altitude(m)": 702835.833004116,
        "Argument of Periapsis(deg)": 0.008572564893093004,
        "Eccentricity": 0.0,
        "Inclination(deg)": 45.0,
        "Latitude(deg)": 17.465656341746836,
        "Longitude(deg)": 137.66211462407995,
        "Mean Anomaly(deg)": 25.043863055735585,
        "RAAN(deg)": 219.99190774932356,
        "Satellite Name": "Constellation 1 969",
        "Satellite Number": 969,
        "Semi-Major Axis(m)": 7083131.272910544,
        "Time(s)": 143
    },
    {
        "Altitude(m)": 702838.2114400333,
        "Argument of Periapsis(deg)": 0.008632512899338408,
        "Eccentricity": 0.0,
        "Inclination(deg)": 45.0,
        "Latitude(deg)": 17.506675558253285,
        "Longitude(deg)": 137.70510616705596,
        "Mean Anomaly(deg)": 25.104564195985468,
        "RAAN(deg)": 219.991851160158,
        "Satellite Name": "Constellation 1 969",
        "Satellite Number": 969,
        "Semi-Major Axis(m)": 7083131.272910544,
        "Time(s)": 144
    },
    {
        "Altitude(m)": 702840.6056328795,
        "Argument of Periapsis(deg)": 0.008692460905583814,
        "Eccentricity": 0.0,
        "Inclination(deg)": 45.0,
        "Latitude(deg)": 17.54768345094248,
        "Longitude(deg)": 137.7481188669359,
        "Mean Anomaly(deg)": 25.165265336235358,
        "RAAN(deg)": 219.99179457099245,
        "Satellite Name": "Constellation 1 969",
        "Satellite Number": 969,
        "Semi-Major Axis(m)": 7083131.272910544,
        "Time(s)": 145
    },
    {
        "Altitude(m)": 702843.0155546032,
        "Argument of Periapsis(deg)": 0.00875240891182922,
        "Eccentricity": 0.0,
        "Inclination(deg)": 45.0,
        "Latitude(deg)": 17.588679986593423,
        "Longitude(deg)": 137.79115278008413,
        "Mean Anomaly(deg)": 25.22596647648527,
        "RAAN(deg)": 219.99173798182684,
        "Satellite Name": "Constellation 1 969",
        "Satellite Number": 969,
        "Semi-Major Axis(m)": 7083131.272910544,
        "Time(s)": 146
    },
    {
        "Altitude(m)": 702845.4411770825,
        "Argument of Periapsis(deg)": 0.008812356918074627,
        "Eccentricity": 0.0,
        "Inclination(deg)": 45.0,
        "Latitude(deg)": 17.629665131943316,
        "Longitude(deg)": 137.83420796289562,
        "Mean Anomaly(deg)": 25.286667616735155,
        "RAAN(deg)": 219.9916813926613,
        "Satellite Name": "Constellation 1 969",
        "Satellite Number": 969,
        "Semi-Major Axis(m)": 7083131.272910544,
        "Time(s)": 147
    },
    {
        "Altitude(m)": 702847.882472138,
        "Argument of Periapsis(deg)": 0.008872304924320031,
        "Eccentricity": 0.0,
        "Inclination(deg)": 45.0,
        "Latitude(deg)": 17.670638853687908,
        "Longitude(deg)": 137.87728430369938,
        "Mean Anomaly(deg)": 25.34736875698507,
        "RAAN(deg)": 219.9916248034957,
        "Satellite Name": "Constellation 1 969",
        "Satellite Number": 969,
        "Semi-Major Axis(m)": 7083131.272910544,
        "Time(s)": 148
    },
    {
        "Altitude(m)": 702850.3394115284,
        "Argument of Periapsis(deg)": 0.008932252930565437,
        "Eccentricity": 0.0,
        "Inclination(deg)": 45.0,
        "Latitude(deg)": 17.71160111848018,
        "Longitude(deg)": 137.92038219514663,
        "Mean Anomaly(deg)": 25.408069897234956,
        "RAAN(deg)": 219.99156821433016,
        "Satellite Name": "Constellation 1 969",
        "Satellite Number": 969,
        "Semi-Major Axis(m)": 7083131.272910544,
        "Time(s)": 149
    },
    {
        "Altitude(m)": 702852.8119669517,
        "Argument of Periapsis(deg)": 0.008992200936810843,
        "Eccentricity": 0.0,
        "Inclination(deg)": 45.0,
        "Latitude(deg)": 17.75255189293178,
        "Longitude(deg)": 137.96350152562792,
        "Mean Anomaly(deg)": 25.468771037484892,
        "RAAN(deg)": 219.9915116251646,
        "Satellite Name": "Constellation 1 969",
        "Satellite Number": 969,
        "Semi-Major Axis(m)": 7083131.272910544,
        "Time(s)": 150
    },
    {
        "Altitude(m)": 702855.30011004,
        "Argument of Periapsis(deg)": 0.009052148943056249,
        "Eccentricity": 0.0,
        "Inclination(deg)": 45.0,
        "Latitude(deg)": 17.79349114361195,
        "Longitude(deg)": 138.00664235166184,
        "Mean Anomaly(deg)": 25.52947217773475,
        "RAAN(deg)": 219.991455035999,
        "Satellite Name": "Constellation 1 969",
        "Satellite Number": 969,
        "Semi-Major Axis(m)": 7083131.272910544,
        "Time(s)": 151
    }
]